<?xml version="1.0" encoding="UTF-8"?>
<gpx version="1.1" creator="Blorenge Fell Race" xmlns="http://www.topografix.com/GPX/1/1" xmlns:xsi="http://www.w3.org/2001/XMLSchema-instance" xsi:schemaLocation="http://www.topografix.com/GPX/1/1 http://www.topografix.com/GPX/1/1/gpx.xsd">
  <metadata>
    <name>Blorenge Fell Race 2026</name>
    <desc>Confirmed 2026 Blorenge Fell Race route.</desc>
    <bounds minlat="51.8005200" minlon="-3.0602100" maxlat="51.8132300" maxlon="-3.0369400"/>
  </metadata>
  <wpt lat="51.8132300" lon="-3.0369400"/>
  <wpt lat="51.8078300" lon="-3.0461700"/>
  <wpt lat="51.8069500" lon="-3.0466500"/>
  <wpt lat="51.8054110" lon="-3.0488790"/>
  <wpt lat="51.8040960" lon="-3.0496700"/>
  <wpt lat="51.8036940" lon="-3.0502240"/>
  <wpt lat="51.8036300" lon="-3.0511600"/>
  <wpt lat="51.8022200" lon="-3.0565500"/>
  <wpt lat="51.8005200" lon="-3.0602100"/>
  <wpt lat="51.8037200" lon="-3.0495000"/>
  <wpt lat="51.8035900" lon="-3.0487800"/>
  <wpt lat="51.8040150" lon="-3.0459590"/>
  <wpt lat="51.8052500" lon="-3.0398100"/>
  <wpt lat="51.8075000" lon="-3.0460600"/>
  <wpt lat="51.8132200" lon="-3.0369400"/>
  <trk>
    <name>Blorenge Fell Race 2026</name>
    <desc>Established race route, starting and finishing at the bottom of Church Lane, Llanfoist.</desc>
    <trkseg>
      <trkpt lat="51.8132300" lon="-3.0369400"/>
      <trkpt lat="51.8130900" lon="-3.0370100"/>
      <trkpt lat="51.8128200" lon="-3.0370900"/>
      <trkpt lat="51.8125200" lon="-3.0370300"/>
      <trkpt lat="51.8124800" lon="-3.0370500"/>
      <trkpt lat="51.8124200" lon="-3.0371000"/>
      <trkpt lat="51.8121000" lon="-3.0376100"/>
      <trkpt lat="51.8118000" lon="-3.0379300"/>
      <trkpt lat="51.8112100" lon="-3.0384100"/>
      <trkpt lat="51.8111100" lon="-3.0386700"/>
      <trkpt lat="51.8110500" lon="-3.0389400"/>
      <trkpt lat="51.8109100" lon="-3.0393600"/>
      <trkpt lat="51.8102600" lon="-3.0417500"/>
      <trkpt lat="51.8087400" lon="-3.0455200"/>
      <trkpt lat="51.8085700" lon="-3.0456500"/>
      <trkpt lat="51.8084100" lon="-3.0459100"/>
      <trkpt lat="51.8078300" lon="-3.0461700"/>
      <trkpt lat="51.8073000" lon="-3.0464200"/>
      <trkpt lat="51.8071700" lon="-3.0464000"/>
      <trkpt lat="51.8069700" lon="-3.0466200"/>
      <trkpt lat="51.8069500" lon="-3.0466500"/>
      <trkpt lat="51.8066780" lon="-3.0471450"/>
      <trkpt lat="51.8064290" lon="-3.0475100"/>
      <trkpt lat="51.8062390" lon="-3.0477180"/>
      <trkpt lat="51.8060550" lon="-3.0480010"/>
      <trkpt lat="51.8056350" lon="-3.0485010"/>
      <trkpt lat="51.8054110" lon="-3.0488790"/>
      <trkpt lat="51.8052390" lon="-3.0490210"/>
      <trkpt lat="51.8050410" lon="-3.0491370"/>
      <trkpt lat="51.8047720" lon="-3.0493330"/>
      <trkpt lat="51.8045340" lon="-3.0493980"/>
      <trkpt lat="51.8040960" lon="-3.0496700"/>
      <trkpt lat="51.8036940" lon="-3.0502240"/>
      <trkpt lat="51.8036710" lon="-3.0504710"/>
      <trkpt lat="51.8036740" lon="-3.0508030"/>
      <trkpt lat="51.8036300" lon="-3.0511600"/>
      <trkpt lat="51.8036100" lon="-3.0514400"/>
      <trkpt lat="51.8034800" lon="-3.0519600"/>
      <trkpt lat="51.8034700" lon="-3.0522600"/>
      <trkpt lat="51.8032500" lon="-3.0531700"/>
      <trkpt lat="51.8032300" lon="-3.0534500"/>
      <trkpt lat="51.8032700" lon="-3.0540400"/>
      <trkpt lat="51.8032300" lon="-3.0543700"/>
      <trkpt lat="51.8031500" lon="-3.0546800"/>
      <trkpt lat="51.8031000" lon="-3.0550100"/>
      <trkpt lat="51.8029600" lon="-3.0552500"/>
      <trkpt lat="51.8028200" lon="-3.0553900"/>
      <trkpt lat="51.8026600" lon="-3.0557500"/>
      <trkpt lat="51.8025100" lon="-3.0559100"/>
      <trkpt lat="51.8023300" lon="-3.0562400"/>
      <trkpt lat="51.8022200" lon="-3.0565500"/>
      <trkpt lat="51.8021600" lon="-3.0567100"/>
      <trkpt lat="51.8020400" lon="-3.0572600"/>
      <trkpt lat="51.8019800" lon="-3.0578800"/>
      <trkpt lat="51.8014100" lon="-3.0584600"/>
      <trkpt lat="51.8009300" lon="-3.0593200"/>
      <trkpt lat="51.8008400" lon="-3.0595800"/>
      <trkpt lat="51.8005200" lon="-3.0602100"/>
      <trkpt lat="51.8008400" lon="-3.0595800"/>
      <trkpt lat="51.8009300" lon="-3.0593200"/>
      <trkpt lat="51.8014100" lon="-3.0584600"/>
      <trkpt lat="51.8019800" lon="-3.0578800"/>
      <trkpt lat="51.8020400" lon="-3.0572600"/>
      <trkpt lat="51.8021600" lon="-3.0567100"/>
      <trkpt lat="51.8022600" lon="-3.0564600"/>
      <trkpt lat="51.8023300" lon="-3.0562400"/>
      <trkpt lat="51.8025100" lon="-3.0559100"/>
      <trkpt lat="51.8026600" lon="-3.0557500"/>
      <trkpt lat="51.8028200" lon="-3.0553900"/>
      <trkpt lat="51.8029600" lon="-3.0552500"/>
      <trkpt lat="51.8031000" lon="-3.0550100"/>
      <trkpt lat="51.8031500" lon="-3.0546800"/>
      <trkpt lat="51.8032300" lon="-3.0543700"/>
      <trkpt lat="51.8032700" lon="-3.0540400"/>
      <trkpt lat="51.8032300" lon="-3.0534500"/>
      <trkpt lat="51.8032500" lon="-3.0531700"/>
      <trkpt lat="51.8034700" lon="-3.0522600"/>
      <trkpt lat="51.8034800" lon="-3.0519600"/>
      <trkpt lat="51.8036100" lon="-3.0514400"/>
      <trkpt lat="51.8036500" lon="-3.0510100"/>
      <trkpt lat="51.8036700" lon="-3.0504400"/>
      <trkpt lat="51.8037500" lon="-3.0501400"/>
      <trkpt lat="51.8038600" lon="-3.0500800"/>
      <trkpt lat="51.8037200" lon="-3.0495000"/>
      <trkpt lat="51.8036400" lon="-3.0491300"/>
      <trkpt lat="51.8036600" lon="-3.0489400"/>
      <trkpt lat="51.8035900" lon="-3.0487800"/>
      <trkpt lat="51.8038870" lon="-3.0469220"/>
      <trkpt lat="51.8040150" lon="-3.0459590"/>
      <trkpt lat="51.8042930" lon="-3.0447280"/>
      <trkpt lat="51.8045560" lon="-3.0434890"/>
      <trkpt lat="51.8047390" lon="-3.0422920"/>
      <trkpt lat="51.8052500" lon="-3.0398100"/>
      <trkpt lat="51.8059500" lon="-3.0401500"/>
      <trkpt lat="51.8061400" lon="-3.0405200"/>
      <trkpt lat="51.8062700" lon="-3.0409600"/>
      <trkpt lat="51.8062900" lon="-3.0411400"/>
      <trkpt lat="51.8064900" lon="-3.0418800"/>
      <trkpt lat="51.8065900" lon="-3.0421400"/>
      <trkpt lat="51.8067400" lon="-3.0428200"/>
      <trkpt lat="51.8072800" lon="-3.0447500"/>
      <trkpt lat="51.8075000" lon="-3.0457000"/>
      <trkpt lat="51.8075000" lon="-3.0460600"/>
      <trkpt lat="51.8075100" lon="-3.0463200"/>
      <trkpt lat="51.8084100" lon="-3.0459000"/>
      <trkpt lat="51.8085700" lon="-3.0456500"/>
      <trkpt lat="51.8087400" lon="-3.0455200"/>
      <trkpt lat="51.8102600" lon="-3.0417500"/>
      <trkpt lat="51.8109100" lon="-3.0393600"/>
      <trkpt lat="51.8110500" lon="-3.0389400"/>
      <trkpt lat="51.8111100" lon="-3.0386700"/>
      <trkpt lat="51.8112100" lon="-3.0384100"/>
      <trkpt lat="51.8118000" lon="-3.0379300"/>
      <trkpt lat="51.8121000" lon="-3.0376100"/>
      <trkpt lat="51.8124200" lon="-3.0371000"/>
      <trkpt lat="51.8124800" lon="-3.0370500"/>
      <trkpt lat="51.8125200" lon="-3.0370300"/>
      <trkpt lat="51.8128200" lon="-3.0370900"/>
      <trkpt lat="51.8130900" lon="-3.0370100"/>
      <trkpt lat="51.8132200" lon="-3.0369400"/>
    </trkseg>
  </trk>
</gpx>
